NORAD_CAT_ID,OBJECT_NAME,OBJECT_TYPE,EPOCH,MEAN_MOTION,ECCENTRICITY,INCLINATION,RA_OF_ASC_NODE,ARG_OF_PERICENTER,MEAN_ANOMALY,BSTAR,MEAN_MOTION_DOT,MEAN_MOTION_DDOT,TLE_LINE0,TLE_LINE1,TLE_LINE2,SEMIMAJOR_AXIS,PERIOD,APOGEE,PERIGEE,DECAYED
54181.0,STARLINK-5227,PAYLOAD,2023-09-22 11:59:34,15.08848563,0.0001398,53.2157,80.5136,87.6617,272.4536,0.00040591,6.18e-05,0.0,0 STARLINK-5227,1 54181U 22141AA  23265.49971008  .00006180  00000-0  40591-3 0  9992,2 54181  53.2157  80.5136 0001398  87.6617 272.4536 15.08848563 50117,6917.854,95.437,540.686,538.752,0.0
54181.0,STARLINK-5227,PAYLOAD,2023-09-22 18:21:07,15.08849928,0.0001371,53.216,79.3258,82.3343,277.7805,0.00039099,5.942e-05,0.0,0 STARLINK-5227,1 54181U 22141AA  23265.76466930  .00005942  00000-0  39099-3 0  9991,2 54181  53.2160  79.3258 0001371  82.3343 277.7805 15.08849928 50383,6917.85,95.437,540.663,538.767,0.0
54181.0,STARLINK-5227,PAYLOAD,2023-09-23 11:50:21,15.08843441,0.0001529,53.2171,76.0549,83.1456,276.9711,6.732e-05,7.84e-06,0.0,0 STARLINK-5227,1 54181U 22141AA  23266.49330894  .00000784  00000-0  67320-4 0  9999,2 54181  53.2171  76.0549 0001529  83.1456 276.9711 15.08843441 50494,6917.87,95.437,540.793,538.677,0.0
54181.0,STARLINK-5227,PAYLOAD,2023-09-24 10:05:45,15.08843088,0.0001378,53.2164,71.89,77.9355,282.1792,5.5508e-05,5.96e-06,0.0,0 STARLINK-5227,1 54181U 22141AA  23267.42066771  .00000596  00000-0  55508-4 0  9999,2 54181  53.2164  71.8900 0001378  77.9355 282.1792 15.08843088 50407,6917.871,95.437,540.689,538.783,0.0
54181.0,STARLINK-5227,PAYLOAD,2023-09-24 18:02:41,15.0884678,0.0001338,53.2165,70.402,89.9792,270.1353,7.9533e-05,9.78e-06,0.0,0 STARLINK-5227,1 54181U 22141AA  23267.75186448  .00000978  00000-0  79533-4 0  9997,2 54181  53.2165  70.4020 0001338  89.9792 270.1353 15.08846780 50682,6917.86,95.437,540.65,538.799,0.0
54181.0,STARLINK-5227,PAYLOAD,2023-09-25 03:34:59,15.08847434,0.0001396,53.217,68.6187,87.5775,272.5376,0.00013823,1.913e-05,0.0,0 STARLINK-5227,1 54181U 22141AA  23268.14930372  .00001913  00000-0  13823-3 0  9993,2 54181  53.2170  68.6187 0001396  87.5775 272.5376 15.08847434 50510,6917.858,95.437,540.688,538.757,0.0
54181.0,STARLINK-5227,PAYLOAD,2023-09-25 17:53:28,15.08841206,0.0001369,53.2175,65.9427,85.765,274.3498,3.1607e-06,-2.38e-06,0.0,0 STARLINK-5227,1 54181U 22141AA  23268.74546586 -.00000238  00000-0  31607-5 0  9991,2 54181  53.2175  65.9427 0001369  85.7650 274.3498 15.08841206 50835,6917.877,95.437,540.689,538.795,0.0
54181.0,STARLINK-5227,PAYLOAD,2023-09-25 21:04:14,15.08845935,0.0001373,53.2169,65.3456,90.0559,270.059,8.3852e-05,1.047e-05,0.0,0 STARLINK-5227,1 54181U 22141AA  23268.87794273  .00001047  00000-0  83852-4 0  9999,2 54181  53.2169  65.3456 0001373  90.0559 270.0590 15.08845935 50622,6917.862,95.437,540.677,538.777,0.0
54181.0,STARLINK-5227,PAYLOAD,2023-09-26 14:33:29,15.08827991,0.0001499,53.2182,62.0775,86.1166,273.9997,-0.00011496,-2.116e-05,0.0,0 STARLINK-5227,1 54181U 22141AA  23269.60659608 -.00002116  00000-0 -11496-3 0  9997,2 54181  53.2182  62.0775 0001499  86.1166 273.9997 15.08827991 50731,6917.917,95.438,540.819,538.745,0.0
54181.0,STARLINK-5227,PAYLOAD,2023-09-26 16:08:53,15.08828451,0.0001625,53.2179,61.7799,80.557,279.5606,-0.00010301,-1.927e-05,0.0,0 STARLINK-5227,1 54181U 22141AA  23269.67283674 -.00001927  00000-0 -10301-3 0  9993,2 54181  53.2179  61.7799 0001625  80.5570 279.5606 15.08828451 50974,6917.916,95.438,540.905,538.657,0.0
54181.0,STARLINK-5227,PAYLOAD,2023-09-26 19:19:39,15.08836085,0.000169,53.2182,61.1848,78.9846,281.1336,4.9277e-06,-2.1e-06,0.0,0 STARLINK-5227,1 54181U 22141AA  23269.80531366 -.00000210  00000-0  49277-5 0  9991,2 54181  53.2182  61.1848 0001690  78.9846 281.1336 15.08836085 50764,6917.892,95.438,540.926,538.588,0.0
54181.0,STARLINK-5227,PAYLOAD,2023-09-27 09:38:07,15.08837224,0.0001662,53.2183,58.5086,78.3141,281.8038,9.775e-05,1.268e-05,0.0,0 STARLINK-5227,1 54181U 22141AA  23270.40147556  .00001268  00000-0  97750-4 0  9994,2 54181  53.2183  58.5086 0001662  78.3141 281.8038 15.08837224 50852,6917.889,95.438,540.904,538.604,0.0
54181.0,STARLINK-5227,PAYLOAD,2023-09-27 17:35:02,15.08845992,0.0001383,53.2168,57.0219,91.8058,268.3093,0.00023439,3.445e-05,0.0,0 STARLINK-5227,1 54181U 22141AA  23270.73267184  .00003445  00000-0  23439-3 0  9991,2 54181  53.2168  57.0219 0001383  91.8058 268.3093 15.08845992 51138,6917.862,95.437,540.684,538.77,0.0
54181.0,STARLINK-5227,PAYLOAD,2023-09-28 09:28:54,15.08838986,0.0001587,53.2179,54.0481,83.6264,276.4909,0.00018341,2.632e-05,0.0,0 STARLINK-5227,1 54181U 22141AA  23271.39507660  .00002632  00000-0  18341-3 0  9993,2 54181  53.2179  54.0481 0001587  83.6264 276.4909 15.08838986 51234,6917.883,95.438,540.846,538.651,0.0
54181.0,STARLINK-5227,PAYLOAD,2023-09-28 14:15:04,15.08842259,0.0001616,53.2181,53.1579,77.4981,282.6192,0.00013847,1.917e-05,0.0,0 STARLINK-5227,1 54181U 22141AA  23271.59379632  .00001917  00000-0  13847-3 0  9992,2 54181  53.2181  53.1579 0001616  77.4981 282.6192 15.08842259 51034,6917.873,95.437,540.856,538.621,0.0
54181.0,STARLINK-5227,PAYLOAD,2023-09-28 15:50:27,15.08841224,0.0001451,53.2177,52.8597,96.3505,263.7652,0.0001497,2.095e-05,0.0,0 STARLINK-5227,1 54181U 22141AA  23271.66003555  .00002095  00000-0  14970-3 0  9994,2 54181  53.2177  52.8597 0001451  96.3505 263.7652 15.08841224 51047,6917.877,95.437,540.745,538.738,0.0
54181.0,STARLINK-5227,PAYLOAD,2023-09-29 14:05:50,15.08845625,0.0001523,53.2187,48.6974,84.2623,275.8543,0.00011164,1.489e-05,0.0,0 STARLINK-5227,1 54181U 22141AA  23272.58739379  .00001489  00000-0  11164-3 0  9994,2 54181  53.2187  48.6974 0001523  84.2623 275.8543 15.08845625 51184,6917.863,95.437,540.782,538.675,0.0
54181.0,STARLINK-5227,PAYLOAD,2023-09-29 15:41:13,15.08848461,0.0001525,53.2184,48.3991,90.0744,270.0423,0.00011753,1.583e-05,0.0,0 STARLINK-5227,1 54181U 22141AA  23272.65363181  .00001583  00000-0  11753-3 0  9995,2 54181  53.2184  48.3991 0001525  90.0744 270.0423 15.08848461 51420,6917.855,95.437,540.775,538.665,0.0
54181.0,STARLINK-5227,PAYLOAD,2023-09-30 09:10:28,15.08841445,0.0001691,53.2187,45.1299,80.3537,279.7646,0.00011012,1.465e-05,0.0,0 STARLINK-5227,1 54181U 22141AA  23273.38227558  .00001465  00000-0  11012-3 0  9990,2 54181  53.2187  45.1299 0001691  80.3537 279.7646 15.08841445 51535,6917.876,95.437,540.911,538.571,0.0
54181.0,STARLINK-5227,PAYLOAD,2023-10-01 12:12:01,15.08853449,0.0001321,53.2177,40.0715,90.2635,269.8508,0.00016392,2.323e-05,0.0,0 STARLINK-5227,1 54181U 22141AA  23274.50834576  .00002323  00000-0  16392-3 0  9999,2 54181  53.2177  40.0715 0001321  90.2635 269.8508 15.08853449 51477,6917.839,95.437,540.618,538.79,0.0
54181.0,STARLINK-5227,PAYLOAD,2023-10-01 15:22:47,15.08858752,0.000131,53.2175,39.4774,91.9559,268.1583,0.00027603,4.11e-05,0.0,0 STARLINK-5227,1 54181U 22141AA  23274.64082212  .00004110  00000-0  27603-3 0  9999,2 54181  53.2175  39.4774 0001310  91.9559 268.1583 15.08858752 51728,6917.823,95.436,540.594,538.782,0.0
54181.0,STARLINK-5227,PAYLOAD,2023-10-02 08:52:02,15.08838766,0.0001218,53.2181,36.2052,85.1163,274.9968,1.0534e-05,-1.2e-06,0.0,0 STARLINK-5227,1 54181U 22141AA  23275.36947209 -.00000120  00000-0  10534-4 0  9999,2 54181  53.2181  36.2052 0001218  85.1163 274.9968 15.08838766 51839,6917.884,95.438,540.592,538.907,0.0
54181.0,STARLINK-5227,PAYLOAD,2023-10-02 15:13:35,15.08836346,0.0001424,53.2182,35.0158,89.5237,270.5919,-2.8103e-05,-7.35e-06,0.0,0 STARLINK-5227,1 54181U 22141AA  23275.63443379 -.00000735  00000-0 -28103-4 0  9992,2 54181  53.2182  35.0158 0001424  89.5237 270.5919 15.08836346 51642,6917.892,95.438,540.742,538.771,0.0
54181.0,STARLINK-5227,PAYLOAD,2023-10-03 11:53:35,15.08842343,0.0001557,53.2192,31.1519,94.3492,265.7678,-6.8913e-07,-2.99e-06,0.0,0 STARLINK-5227,1 54181U 22141AA  23276.49555285 -.00000299  00000-0 -68913-6 0  9997,2 54181  53.2192  31.1519 0001557  94.3492 265.7678 15.08842343 52008,6917.873,95.437,540.815,538.661,0.0
54181.0,STARLINK-5227,PAYLOAD,2023-10-03 15:04:21,15.08846074,0.0001636,53.2193,30.5578,86.5933,273.5247,0.00019472,2.813e-05,0.0,0 STARLINK-5227,1 54181U 22141AA  23276.62803184  .00002813  00000-0  19472-3 0  9991,2 54181  53.2193  30.5578 0001636  86.5933 273.5247 15.08846074 51797,6917.862,95.437,540.859,538.595,0.0
54181.0,STARLINK-5227,PAYLOAD,2023-10-04 06:58:13,15.0883776,0.0001938,53.2191,27.5884,55.3651,304.7524,0.00035032,5.291e-05,0.0,0 STARLINK-5227,1 54181U 22141AA  23277.29043964  .00005291  00000-0  35032-3 0  9990,2 54181  53.2191  27.5884 0001938  55.3651 304.7524 15.08837760 52122,6917.887,95.438,541.093,538.412,0.0
54181.0,STARLINK-5227,PAYLOAD,2023-10-04 13:19:46,15.08844778,0.0001657,53.2192,26.3963,63.8949,296.2214,0.00027822,4.143e-05,0.0,0 STARLINK-5227,1 54181U 22141AA  23277.55539591  .00004143  00000-0  27822-3 0  9998,2 54181  53.2192  26.3963 0001657  63.8949 296.2214 15.08844778 51936,6917.866,95.437,540.877,538.584,0.0
54181.0,STARLINK-5227,PAYLOAD,2023-10-04 14:55:09,15.08849118,0.0001834,53.2195,26.0988,65.4519,294.6664,0.00039477,6.002e-05,0.0,0 STARLINK-5227,1 54181U 22141AA  23277.62163506  .00006002  00000-0  39477-3 0  9990,2 54181  53.2195  26.0988 0001834  65.4519 294.6664 15.08849118 52172,6917.853,95.437,540.986,538.449,0.0
54181.0,STARLINK-5227,PAYLOAD,2023-10-05 00:27:28,15.08844882,0.0001661,53.2189,24.3142,77.6379,282.4799,0.00022065,3.226e-05,0.0,0 STARLINK-5227,1 54181U 22141AA  23278.01907563  .00003226  00000-0  22065-3 0  9993,2 54181  53.2189  24.3142 0001661  77.6379 282.4799 15.08844882 52239,6917.865,95.437,540.88,538.581,0.0
54181.0,STARLINK-5227,PAYLOAD,2023-10-05 13:10:33,15.08837547,0.0001232,53.2169,21.936,62.5893,297.5224,2.2408e-05,6.9e-07,0.0,0 STARLINK-5227,1 54181U 22141AA  23278.54899821  .00000069  00000-0  22408-4 0  9992,2 54181  53.2169  21.9360 0001232  62.5893 297.5224 15.08837547 52083,6917.888,95.438,540.605,538.901,0.0
